{
  "type": "FeatureCollection",
  "features": [
    {
      "type": "Feature",
      "properties": {"STATE_NAME": "Western Australia"},
      "geometry": {
        "type": "Polygon",
        "coordinates": [[
          [129.0, -13.5],
          [127.8, -13.2],
          [124.5, -13.8],
          [121.8, -16.8],
          [118.6, -20.0],
          [115.0, -22.5],
          [113.5, -26.0],
          [113.0, -30.0],
          [114.3, -34.2],
          [115.5, -34.6],
          [117.5, -35.0],
          [119.5, -34.5],
          [122.5, -33.8],
          [126.0, -33.9],
          [129.0, -35.0],
          [129.0, -26.0],
          [129.0, -13.5]
        ]]
      }
    },
    {
      "type": "Feature",
      "properties": {"STATE_NAME": "Northern Territory"},
      "geometry": {
        "type": "Polygon",
        "coordinates": [[
          [129.0, -13.5],
          [130.0, -11.5],
          [131.5, -11.2],
          [132.5, -12.0],
          [134.5, -11.8],
          [136.0, -12.0],
          [137.0, -12.5],
          [138.0, -14.5],
          [138.0, -26.0],
          [129.0, -26.0],
          [129.0, -13.5]
        ]]
      }
    },
    {
      "type": "Feature",
      "properties": {"STATE_NAME": "South Australia"},
      "geometry": {
        "type": "Polygon",
        "coordinates": [[
          [129.0, -26.0],
          [141.0, -26.0],
          [141.0, -34.0],
          [140.5, -35.5],
          [139.8, -36.0],
          [138.5, -35.8],
          [138.0, -35.6],
          [137.5, -35.7],
          [137.0, -35.5],
          [137.2, -34.0],
          [137.5, -32.5],
          [136.5, -31.8],
          [135.0, -34.7],
          [134.5, -33.5],
          [133.5, -32.5],
          [132.5, -32.0],
          [131.5, -31.9],
          [130.5, -31.8],
          [129.5, -32.5],
          [129.0, -33.5],
          [129.0, -26.0]
        ]]
      }
    },
    {
      "type": "Feature",
      "properties": {"STATE_NAME": "Queensland"},
      "geometry": {
        "type": "Polygon",
        "coordinates": [[
          [138.0, -14.5],
          [138.5, -14.0],
          [139.5, -12.5],
          [141.5, -11.0],
          [142.5, -10.7],
          [143.5, -10.5],
          [145.0, -10.0],
          [147.5, -10.5],
          [150.5, -11.5],
          [153.0, -12.0],
          [152.5, -14.0],
          [151.5, -16.5],
          [150.5, -19.0],
          [151.0, -21.0],
          [151.5, -23.5],
          [152.5, -25.5],
          [153.5, -27.5],
          [153.5, -28.5],
          [152.5, -29.0],
          [141.0, -29.0],
          [141.0, -26.0],
          [138.0, -26.0],
          [138.0, -14.5]
        ]]
      }
    },
    {
      "type": "Feature",
      "properties": {"STATE_NAME": "New South Wales"},
      "geometry": {
        "type": "Polygon",
        "coordinates": [[
          [141.0, -29.0],
          [152.5, -29.0],
          [153.5, -28.5],
          [153.5, -30.0],
          [153.0, -31.0],
          [152.5, -32.5],
          [152.0, -33.5],
          [151.5, -34.0],
          [151.0, -34.5],
          [150.5, -35.5],
          [150.0, -36.0],
          [149.5, -37.0],
          [149.0, -37.5],
          [148.0, -37.0],
          [147.0, -36.5],
          [146.0, -36.2],
          [145.5, -36.0],
          [145.0, -35.5],
          [144.5, -35.2],
          [143.5, -35.0],
          [142.5, -34.5],
          [141.0, -34.0],
          [141.0, -29.0]
        ]]
      }
    },
    {
      "type": "Feature",
      "properties": {"STATE_NAME": "Victoria"},
      "geometry": {
        "type": "Polygon",
        "coordinates": [[
          [141.0, -34.0],
          [142.5, -34.5],
          [143.5, -35.0],
          [144.5, -35.2],
          [145.0, -35.5],
          [145.5, -36.0],
          [146.0, -36.2],
          [147.0, -36.5],
          [148.0, -37.0],
          [149.0, -37.5],
          [149.0, -38.0],
          [148.5, -38.5],
          [148.0, -38.8],
          [147.0, -38.8],
          [146.5, -39.1],
          [146.0, -38.8],
          [145.0, -38.8],
          [144.0, -38.8],
          [143.5, -39.0],
          [143.0, -38.8],
          [142.0, -38.5],
          [141.5, -38.4],
          [141.0, -38.5],
          [141.0, -34.0]
        ]]
      }
    },
    {
      "type": "Feature",
      "properties": {"STATE_NAME": "Tasmania"},
      "geometry": {
        "type": "Polygon",
        "coordinates": [[
          [145.0, -40.5],
          [146.5, -40.5],
          [147.5, -41.0],
          [148.3, -41.5],
          [148.5, -42.0],
          [148.0, -43.0],
          [147.0, -43.5],
          [145.5, -43.5],
          [144.5, -42.5],
          [144.5, -41.5],
          [145.0, -40.5]
        ]]
      }
    },
    {
      "type": "Feature",
      "properties": {"STATE_NAME": "Australian Capital Territory"},
      "geometry": {
        "type": "Polygon",
        "coordinates": [[
          [148.8, -35.1],
          [149.4, -35.1],
          [149.4, -35.9],
          [148.8, -35.9],
          [148.8, -35.1]
        ]]
      }
    }
  ]
}
